{"type": "FeatureCollection", "features": [ {"type": "Feature", "properties": {"norad_id": 35834, "name": "COSMOS 2251 DEB", "group": "cosmos-2251-debris", "lat": 64.7066251576913, "lon": -37.39189179702032, "alt_km": 765.2923886098506, "timestamp": "2025-12-23T16:57:12.751578+00:00", "meta": {"OBJECT_NAME": "COSMOS 2251 DEB", "OBJECT_ID": "1993-036ATG", "EPOCH": "2025-12-18T21:21:21.733632", "MEAN_MOTION": 14.12989535, "ECCENTRICITY": 0.01093187, "INCLINATION": 73.9334, "RA_OF_ASC_NODE": 293.5971, "ARG_OF_PERICENTER": 92.3571, "MEAN_ANOMALY": 326.954, "EPHEMERIS_TYPE": 0, "CLASSIFICATION_TYPE": "U", "NORAD_CAT_ID": 35834, "ELEMENT_SET_NO": 999, "REV_AT_EPOCH": 66350, "BSTAR": 0.00038881457, "MEAN_MOTION_DOT": 7.43e-06, "MEAN_MOTION_DDOT": 0}, "tle": {"line1": "1 35834U 93036ATG 25352.88983488  .00000743  00000+0  38881-3 0  9991", "line2": "2 35834  73.9334 293.5971 0109318  92.3571 326.9540 14.12989535663505"}}, "geometry": {"type": "Point", "coordinates": [-37.39189179702032, 64.7066251576913]}}, {"type": "Feature", "properties": {"norad_id": 35835, "name": "COSMOS 2251 DEB", "group": "cosmos-2251-debris", "lat": -69.46661331065725, "lon": 119.71532541319856, "alt_km": 1100.47386280722, "timestamp": "2025-12-23T16:57:12.751589+00:00", "meta": {"OBJECT_NAME": "COSMOS 2251 DEB", "OBJECT_ID": "1993-036ATH", "EPOCH": "2025-12-21T23:46:51.040128", "MEAN_MOTION": 13.82917227, "ECCENTRICITY": 0.02911556, "INCLINATION": 74.0637, "RA_OF_ASC_NODE": 252.8841, "ARG_OF_PERICENTER": 32.3711, "MEAN_ANOMALY": 329.4908, "EPHEMERIS_TYPE": 0, "CLASSIFICATION_TYPE": "U", "NORAD_CAT_ID": 35835, "ELEMENT_SET_NO": 999, "REV_AT_EPOCH": 61827, "BSTAR": 0.0013811701, "MEAN_MOTION_DOT": 2.065e-05, "MEAN_MOTION_DDOT": 0}, "tle": {"line1": "1 35835U 93036ATH 25355.99086852  .00002065  00000+0  13812-2 0  9991", "line2": "2 35835  74.0637 252.8841 0291155  32.3711 329.4908 13.82917227618274"}}, "geometry": {"type": "Point", "coordinates": [119.71532541319856, -69.46661331065725]}}, {"type": "Feature", "properties": {"norad_id": 35836, "name": "COSMOS 2251 DEB", "group": "cosmos-2251-debris", "lat": -3.9843622560190455, "lon": 150.4888045367666, "alt_km": 674.1851994929739, "timestamp": "2025-12-23T16:57:12.751600+00:00", "meta": {"OBJECT_NAME": "COSMOS 2251 DEB", "OBJECT_ID": "1993-036ATJ", "EPOCH": "2025-12-23T03:54:59.150304", "MEAN_MOTION": 14.71196953, "ECCENTRICITY": 0.00235197, "INCLINATION": 74.0318, "RA_OF_ASC_NODE": 152.6866, "ARG_OF_PERICENTER": 210.4198, "MEAN_ANOMALY": 149.5611, "EPHEMERIS_TYPE": 0, "CLASSIFICATION_TYPE": "U", "NORAD_CAT_ID": 35836, "ELEMENT_SET_NO": 999, "REV_AT_EPOCH": 63673, "BSTAR": 0.0022500668, "MEAN_MOTION_DOT": 0.00013924, "MEAN_MOTION_DDOT": 0}, "tle": {"line1": "1 35836U 93036ATJ 25357.16318461  .00013924  00000+0  22501-2 0  9998", "line2": "2 35836  74.0318 152.6866 0023519 210.4198 149.5611 14.71196953636737"}}, "geometry": {"type": "Point", "coordinates": [150.4888045367666, -3.9843622560190455]}}, {"type": "Feature", "properties": {"norad_id": 35837, "name": "COSMOS 2251 DEB", "group": "cosmos-2251-debris", "lat": -6.63592242653863, "lon": -172.56469375838955, "alt_km": 1148.7067356251928, "timestamp": "2025-12-23T16:57:12.751610+00:00", "meta": {"OBJECT_NAME": "COSMOS 2251 DEB", "OBJECT_ID": "1993-036ATK", "EPOCH": "2025-12-20T04:59:29.154912", "MEAN_MOTION": 13.63523619, "ECCENTRICITY": 0.04220249, "INCLINATION": 73.7219, "RA_OF_ASC_NODE": 195.2026, "ARG_OF_PERICENTER": 114.812, "MEAN_ANOMALY": 356.3531, "EPHEMERIS_TYPE": 0, "CLASSIFICATION_TYPE": "U", "NORAD_CAT_ID": 35837, "ELEMENT_SET_NO": 999, "REV_AT_EPOCH": 58078, "BSTAR": 0.0020383632, "MEAN_MOTION_DOT": 2.925e-05, "MEAN_MOTION_DDOT": 0}, "tle": {"line1": "1 35837U 93036ATK 25354.20797633  .00002925  00000+0  20384-2 0  9999", "line2": "2 35837  73.7219 195.2026 0422024 114.8120 356.3531 13.63523619580786"}}, "geometry": {"type": "Point", "coordinates": [-172.56469375838955, -6.63592242653863]}}, {"type": "Feature", "properties": {"norad_id": 35839, "name": "COSMOS 2251 DEB", "group": "cosmos-2251-debris", "lat": 54.91253566965008, "lon": -36.757831521252314, "alt_km": 378.95327868973527, "timestamp": "2025-12-23T16:57:12.751621+00:00", "meta": {"OBJECT_NAME": "COSMOS 2251 DEB", "OBJECT_ID": "1993-036ATM", "EPOCH": "2025-12-22T13:00:04.597632", "MEAN_MOTION": 15.59480867, "ECCENTRICITY": 0.0007508, "INCLINATION": 74.2046, "RA_OF_ASC_NODE": 302.0435, "ARG_OF_PERICENTER": 136.7735, "MEAN_ANOMALY": 223.4075, "EPHEMERIS_TYPE": 0, "CLASSIFICATION_TYPE": "U", "NORAD_CAT_ID": 35839, "ELEMENT_SET_NO": 999, "REV_AT_EPOCH": 88720, "BSTAR": 0.0064439432, "MEAN_MOTION_DOT": 0.0054719, "MEAN_MOTION_DDOT": 0}, "tle": {"line1": "1 35839U 93036ATM 25356.54171988  .00547190  00000+0  64439-2 0  9996", "line2": "2 35839  74.2046 302.0435 0007508 136.7735 223.4075 15.59480867887203"}}, "geometry": {"type": "Point", "coordinates": [-36.757831521252314, 54.91253566965008]}}, {"type": "Feature", "properties": {"norad_id": 35840, "name": "COSMOS 2251 DEB", "group": "cosmos-2251-debris", "lat": -34.74076449968147, "lon": -30.612852653148153, "alt_km": 853.7975835144016, "timestamp": "2025-12-23T16:57:12.751631+00:00", "meta": {"OBJECT_NAME": "COSMOS 2251 DEB", "OBJECT_ID": "1993-036ATN", "EPOCH": "2025-12-12T04:26:56.474304", "MEAN_MOTION": 14.37821687, "ECCENTRICITY": 0.01162768, "INCLINATION": 73.9307, "RA_OF_ASC_NODE": 159.2062, "ARG_OF_PERICENTER": 61.7798, "MEAN_ANOMALY": 299.5037, "EPHEMERIS_TYPE": 0, "CLASSIFICATION_TYPE": "U", "NORAD_CAT_ID": 35840, "ELEMENT_SET_NO": 999, "REV_AT_EPOCH": 85283, "BSTAR": 0.0026691111, "MEAN_MOTION_DOT": 8.683e-05, "MEAN_MOTION_DDOT": 0}, "tle": {"line1": "1 35840U 93036ATN 25346.18537586  .00008683  00000+0  26691-2 0  9994", "line2": "2 35840  73.9307 159.2062 0116276  61.7798 299.5037 14.37821687852835"}}, "geometry": {"type": "Point", "coordinates": [-30.612852653148153, -34.74076449968147]}}, {"type": "Feature", "properties": {"norad_id": 35883, "name": "COSMOS 2251 DEB", "group": "cosmos-2251-debris", "lat": -3.3793835952110522, "lon": 48.43235569155537, "alt_km": 785.9556254823747, "timestamp": "2025-12-23T16:57:12.751642+00:00", "meta": {"OBJECT_NAME": "COSMOS 2251 DEB", "OBJECT_ID": "1993-036ATW", "EPOCH": "2025-12-16T04:41:35.789568", "MEAN_MOTION": 14.50615193, "ECCENTRICITY": 0.00835028, "INCLINATION": 74.0253, "RA_OF_ASC_NODE": 63.5249, "ARG_OF_PERICENTER": 192.1269, "MEAN_ANOMALY": 197.0315, "EPHEMERIS_TYPE": 0, "CLASSIFICATION_TYPE": "U", "NORAD_CAT_ID": 35883, "ELEMENT_SET_NO": 999, "REV_AT_EPOCH": 62436, "BSTAR": 0.00022216854, "MEAN_MOTION_DOT": 8.82e-06, "MEAN_MOTION_DDOT": 0}, "tle": {"line1": "1 35883U 93036ATW 25350.19555312  .00000882  00000+0  22217-3 0  9998", "line2": "2 35883  74.0253  63.5249 0083502 192.1269 197.0315 14.50615193624369"}}, "geometry": {"type": "Point", "coordinates": [48.43235569155537, -3.3793835952110522]}}, {"type": "Feature", "properties": {"norad_id": 35884, "name": "COSMOS 2251 DEB", "group": "cosmos-2251-debris", "lat": 4.336900797274011, "lon": 134.9032241122042, "alt_km": 787.4462572180719, "timestamp": "2025-12-23T16:57:12.751652+00:00", "meta": {"OBJECT_NAME": "COSMOS 2251 DEB", "OBJECT_ID": "1993-036ATX", "EPOCH": "2025-12-23T04:21:24.693984", "MEAN_MOTION": 14.25720371, "ECCENTRICITY": 0.01085787, "INCLINATION": 73.9917, "RA_OF_ASC_NODE": 317.1007, "ARG_OF_PERICENTER": 101.1734, "MEAN_ANOMALY": 260.1642, "EPHEMERIS_TYPE": 0, "CLASSIFICATION_TYPE": "U", "NORAD_CAT_ID": 35884, "ELEMENT_SET_NO": 999, "REV_AT_EPOCH": 22506, "BSTAR": 0.0013065465, "MEAN_MOTION_DOT": 3.275e-05, "MEAN_MOTION_DDOT": 0}, "tle": {"line1": "1 35884U 93036ATX 25357.18153581  .00003275  00000+0  13065-2 0  9996", "line2": "2 35884  73.9917 317.1007 0108578 101.1734 260.1642 14.25720371225069"}}, "geometry": {"type": "Point", "coordinates": [134.9032241122042, 4.336900797274011]}}, {"type": "Feature", "properties": {"norad_id": 35885, "name": "COSMOS 2251 DEB", "group": "cosmos-2251-debris", "lat": 65.80759136089141, "lon": -45.792587152340914, "alt_km": 756.557822733409, "timestamp": "2025-12-23T16:57:12.751662+00:00", "meta": {"OBJECT_NAME": "COSMOS 2251 DEB", "OBJECT_ID": "1993-036ATY", "EPOCH": "2025-12-23T01:35:28.135968", "MEAN_MOTION": 14.37538947, "ECCENTRICITY": 0.00237371, "INCLINATION": 74.0286, "RA_OF_ASC_NODE": 275.7818, "ARG_OF_PERICENTER": 354.0734, "MEAN_ANOMALY": 6.0135, "EPHEMERIS_TYPE": 0, "CLASSIFICATION_TYPE": "U", "NORAD_CAT_ID": 35885, "ELEMENT_SET_NO": 999, "REV_AT_EPOCH": 65164, "BSTAR": 0.00028396743, "MEAN_MOTION_DOT": 8.27e-06, "MEAN_MOTION_DDOT": 0}, "tle": {"line1": "1 35885U 93036ATY 25357.06629787  .00000827  00000+0  28397-3 0  9995", "line2": "2 35885  74.0286 275.7818 0023737 354.0734   6.0135 14.37538947651642"}}, "geometry": {"type": "Point", "coordinates": [-45.792587152340914, 65.80759136089141]}}, {"type": "Feature", "properties": {"norad_id": 35888, "name": "COSMOS 2251 DEB", "group": "cosmos-2251-debris", "lat": 50.88814047268882, "lon": 135.17218669967966, "alt_km": 661.8502269098517, "timestamp": "2025-12-23T16:57:12.751672+00:00", "meta": {"OBJECT_NAME": "COSMOS 2251 DEB", "OBJECT_ID": "1993-036AUB", "EPOCH": "2025-12-23T04:51:21.809664", "MEAN_MOTION": 14.58352847, "ECCENTRICITY": 0.00479955, "INCLINATION": 74.0338, "RA_OF_ASC_NODE": 336.7494, "ARG_OF_PERICENTER": 105.6018, "MEAN_ANOMALY": 255.0451, "EPHEMERIS_TYPE": 0, "CLASSIFICATION_TYPE": "U", "NORAD_CAT_ID": 35888, "ELEMENT_SET_NO": 999, "REV_AT_EPOCH": 86426, "BSTAR": 0.00040405486, "MEAN_MOTION_DOT": 1.871e-05, "MEAN_MOTION_DDOT": 0}, "tle": {"line1": "1 35888U 93036AUB 25357.20233576  .00001871  00000+0  40405-3 0  9995", "line2": "2 35888  74.0338 336.7494 0047995 105.6018 255.0451 14.58352847864265"}}, "geometry": {"type": "Point", "coordinates": [135.17218669967966, 50.88814047268882]}}]}